2025-284A               
1 66913U 25284A   25365.05037874  .00009355  00000+0  77971-3 0  9996
2 66913  80.4033 106.9667 0016555 221.3672 138.6292 14.98433865  3886
2025-284B               
1 66914U 25284B   25350.28554881  .00008068  00000+0  38445-3 0  9991
2 66914  80.4045 125.2713 0008179 234.9626 125.0834 15.18985981  1668
HULIANWANG DIGUI-105    
1 66915U 25285A   26002.22349597 -.00000060  00000+0  63006-4 0  9995
2 66915  50.0061  34.0278 0000195 280.5888  79.4992 13.97378610  3782
HULIANWANG DIGUI-106    
1 66916U 25285B   26002.22015498  .00000152  00000+0  21258-3 0  9999
2 66916  50.0080  34.0129 0000066 171.0860 189.0043 13.97475108  3785
HULIANWANG DIGUI-107    
1 66917U 25285C   26002.21824351 -.00000037  00000+0  78933-4 0  9991
2 66917  50.0038  33.9923 0000180  23.9945 336.0965 13.97518478  3780
HULIANWANG DIGUI-108    
1 66918U 25285D   26001.07274741 -.00000041  00000+0  74803-4 0  9994
2 66918  50.0155  38.6440 0006989 349.6929  10.3829 13.99203865  3627
HULIANWANG DIGUI-109    
1 66919U 25285E   26002.21398920 -.00000024  00000+0  88257-4 0  9997
2 66919  50.0085  33.9821 0000123 230.8948 129.1943 13.97830950  3789
HULIANWANG DIGUI-110    
1 66920U 25285F   26002.21197226  .00000386  00000+0  37281-3 0  9995
2 66920  50.0124  33.9819 0000161 306.1895  53.8993 13.98328153  3788
HULIANWANG DIGUI-111    
1 66921U 25285G   26002.21067331 -.00000171  00000+0 -14848-4 0  9998
2 66921  50.0133  33.9792 0000382 149.1036 210.9888 13.98406468  3781
HULIANWANG DIGUI-112    
1 66922U 25285H   26002.20930436  .00000088  00000+0  16545-3 0  9993
2 66922  50.0103  33.9616 0000109 211.8796 148.2100 13.98295676  3788
HULIANWANG DIGUI-113    
1 66923U 25285J   26002.20675937  .00000499  00000+0  44853-3 0  9995
2 66923  50.0103  33.9507 0000241 233.5200 126.5681 13.98755058  3784
CZ-8A R/B               
1 66924U 25285K   26002.05942096  .00000205  00000+0  13056-3 0  9998
2 66924  50.0090  29.6597 0119191 178.3621 181.7708 14.30512522  3832
